BEIDOU-2 M4             
1 38251U 12018B   26158.99268355 -.00000055  00000+0  00000+0 0  9999
2 38251  55.6665 304.3996 0011102 277.5873  82.2781  1.86229806 95770
ARIRANG-3 (KOMPSAT-3)   
1 38338U 12025B   26159.13670873  .00000507  00000+0  10987-3 0  9992
2 38338  98.1173 116.7532 0006293 132.6287 227.5446 14.62198643750028
METOP-B                 
1 38771U 12049A   26159.17952848  .00000096  00000+0  63772-4 0  9992
2 38771  98.6507 210.8581 0002754  40.5698 319.5684 14.21430293711989
SJ-9A                   
1 38860U 12056A   26159.20554287  .00001472  00000+0  17601-3 0  9996
2 38860  97.6703 131.4824 0024037 288.2558  71.6042 14.85458355698254
COSMOS 2484 (RODNIK-S 6)
1 39059U 13001C   26159.13079837  .00000010  00000+0  19314-5 0  9995
2 39059  82.5017 227.5226 0027209  55.8776 304.4879 12.42938927607437
SARAL                   
1 39086U 13009A   26159.17240912  .00000083  00000+0  46528-4 0  9997
2 39086  98.5558 345.8541 0001217 352.4180   7.6986 14.32853722694318
STRAND-1                
1 39090U 13009E   26159.00516148  .00000318  00000+0  12142-3 0  9996
2 39090  98.3920 339.4657 0007416 256.8127 103.2233 14.37158036695743
BRITE-AUSTRIA           
1 39091U 13009F   26158.73546881  .00000212  00000+0  86658-4 0  9990
2 39091  98.3993 338.4054 0008958 268.4216  91.5944 14.36538507695690
GAOFEN-1                
1 39150U 13018A   26159.04994712  .00000198  00000+0  35695-4 0  9999
2 39150  97.9091 231.3033 0015888 298.8203  61.1412 14.76526544706891
NEE-01 PEGASO           
1 39151U 13018B   26158.88677027  .00003701  00000+0  35587-3 0  9990
2 39151  98.1215 302.7307 0012438 188.3963 171.7049 14.93617855709313
PROBA-V                 
1 39159U 13021A   26159.19298488  .00000078  00000+0  52071-4 0  9999
2 39159  98.3580 138.2439 0004722 145.2119 214.9370 14.23595079679834
ARIRANG-5 (KOMPSAT-5)   
1 39227U 13042A   26159.18731693  .00001802  00000+0  13283-3 0  9994
2 39227  97.6216 346.0143 0004146 142.7095 217.4419 15.04556469702507
GONETS-M 5              
1 39249U 13048A   26159.17976362  .00000032  00000+0  15991-3 0  9999
2 39249  82.4834 348.9989 0015748 231.2771 128.6901 12.42891521577760
GONETS-M 7              
1 39251U 13048C   26159.22338126 -.00000024  00000+0 -24092-3 0  9993
2 39251  82.4902 351.8896 0016551 232.5012 127.4564 12.42914147577722
FENGYUN 3C              
1 39260U 13052A   26159.20962089  .00000092  00000+0  67838-4 0  9996
2 39260  98.4975 133.4969 0015648  52.1181 308.1407 14.15753076657292
CASSIOPE                
1 39265U 13055A   26159.10605793  .00044341 -53464-6  48934-3 0  9999
2 39265  80.9146  77.7409 0295754  92.8911 270.6205 15.24370033666289
APRIZESAT 7             
1 39416U 13066A   26159.09738263  .00001343  00000+0  13830-3 0  9998
2 39416  97.7704 112.4481 0034425 240.3619 119.4169 14.91546074679872
ZACUBE-1 (TSHEPISOSAT)  
1 39417U 13066B   26159.14203030  .00004487  00000+0  34934-3 0  9994
2 39417  97.8095 121.4299 0039989 279.5341  80.1364 15.01133704679370
APRIZESAT 8             
1 39425U 13066K   26158.79209973  .00001229  00000+0  13887-3 0  9990
2 39425  97.8217 106.3913 0044905 318.3975  41.3827 14.87634950678272
TRITON-1                
1 39427U 13066M   26159.17880543  .00003210  00000+0  38804-3 0  9991
2 39427  97.8248  69.1906 0088297 263.7317  95.3833 14.81677985672753
